<?xml version="1.0" encoding="UTF-8"?>
<kml xmlns="http://www.opengis.net/kml/2.2">
<Document>
<Placemark>
<LineString><coordinates>
90.363833,23.834145,0
90.363832,23.833879,0
</coordinates></LineString>
</Placemark>
<Placemark>
<LineString><coordinates>
90.363832,23.833879,0
90.363860,23.833543,0
</coordinates></LineString>
</Placemark>
<Placemark>
<LineString><coordinates>
90.363860,23.833543,0
90.363853,23.832228,0
</coordinates></LineString>
</Placemark>
<Placemark>
<LineString><coordinates>
90.363853,23.832228,0
90.363855,23.832081,0
</coordinates></LineString>
</Placemark>
<Placemark>
<LineString><coordinates>
90.363855,23.832081,0
90.363855,23.832054,0
</coordinates></LineString>
</Placemark>
<Placemark>
<LineString><coordinates>
90.363855,23.832054,0
90.363846,23.831827,0
</coordinates></LineString>
</Placemark>
<Placemark>
<LineString><coordinates>
90.363846,23.831827,0
90.363839,23.831643,0
</coordinates></LineString>
</Placemark>
<Placemark>
<LineString><coordinates>
90.363839,23.831643,0
90.363829,23.831451,0
</coordinates></LineString>
</Placemark>
<Placemark>
<LineString><coordinates>
90.363829,23.831451,0
90.364156,23.829362,0
</coordinates></LineString>
</Placemark>
<Placemark>
<LineString><coordinates>
90.364156,23.829362,0
90.364226,23.829363,0
</coordinates></LineString>
</Placemark>
<Placemark>
<LineString><coordinates>
90.364226,23.829363,0
90.364255,23.828335,0
</coordinates></LineString>
</Placemark>
<Placemark>
<LineString><coordinates>
90.364255,23.828335,0
90.364282,23.827842,0
</coordinates></LineString>
</Placemark>
<Placemark>
<LineString><coordinates>
90.364282,23.827842,0
90.364237,23.827834,0
</coordinates></LineString>
</Placemark>
<Placemark>
<LineString><coordinates>
90.364237,23.827834,0
90.364251,23.827341,0
</coordinates></LineString>
</Placemark>
<Placemark>
<LineString><coordinates>
90.364251,23.827341,0
90.364269,23.826747,0
</coordinates></LineString>
</Placemark>
<Placemark>
<LineString><coordinates>
90.364269,23.826747,0
90.364278,23.826438,0
</coordinates></LineString>
</Placemark>
<Placemark>
<LineString><coordinates>
90.364278,23.826438,0
90.364279,23.826382,0
</coordinates></LineString>
</Placemark>
<Placemark>
<LineString><coordinates>
90.364279,23.826382,0
90.364280,23.826188,0
</coordinates></LineString>
</Placemark>
<Placemark>
<LineString><coordinates>
90.364280,23.826188,0
90.364282,23.825693,0
</coordinates></LineString>
</Placemark>
<Placemark>
<LineString><coordinates>
90.364282,23.825693,0
90.364286,23.825198,0
</coordinates></LineString>
</Placemark>
<Placemark>
<LineString><coordinates>
90.364286,23.825198,0
90.364286,23.825110,0
</coordinates></LineString>
</Placemark>
<Placemark>
<LineString><coordinates>
90.364286,23.825110,0
90.364287,23.824956,0
</coordinates></LineString>
</Placemark>
<Placemark>
<LineString><coordinates>
90.364287,23.824956,0
90.364304,23.824687,0
</coordinates></LineString>
</Placemark>
<Placemark>
<LineString><coordinates>
90.364304,23.824687,0
90.364315,23.824510,0
</coordinates></LineString>
</Placemark>
<Placemark>
<LineString><coordinates>
90.364315,23.824510,0
90.364354,23.823893,0
</coordinates></LineString>
</Placemark>
<Placemark>
<LineString><coordinates>
90.364354,23.823893,0
90.364366,23.823705,0
</coordinates></LineString>
</Placemark>
<Placemark>
<LineString><coordinates>
90.364366,23.823705,0
90.364417,23.822740,0
</coordinates></LineString>
</Placemark>
<Placemark>
<LineString><coordinates>
90.364417,23.822740,0
90.364420,23.822716,0
</coordinates></LineString>
</Placemark>
<Placemark>
<LineString><coordinates>
90.364420,23.822716,0
90.364431,23.822647,0
</coordinates></LineString>
</Placemark>
<Placemark>
<LineString><coordinates>
90.364431,23.822647,0
90.364492,23.822236,0
</coordinates></LineString>
</Placemark>
<Placemark>
<LineString><coordinates>
90.364492,23.822236,0
90.364516,23.822151,0
</coordinates></LineString>
</Placemark>
<Placemark>
<LineString><coordinates>
90.364516,23.822151,0
90.364663,23.821602,0
</coordinates></LineString>
</Placemark>
<Placemark>
<LineString><coordinates>
90.364663,23.821602,0
90.364795,23.821108,0
</coordinates></LineString>
</Placemark>
<Placemark>
<LineString><coordinates>
90.364795,23.821108,0
90.364860,23.820867,0
</coordinates></LineString>
</Placemark>
<Placemark>
<LineString><coordinates>
90.364860,23.820867,0
90.364921,23.820637,0
</coordinates></LineString>
</Placemark>
<Placemark>
<LineString><coordinates>
90.364921,23.820637,0
90.364931,23.820601,0
</coordinates></LineString>
</Placemark>
<Placemark>
<LineString><coordinates>
90.364931,23.820601,0
90.365007,23.820315,0
</coordinates></LineString>
</Placemark>
<Placemark>
<LineString><coordinates>
90.365007,23.820315,0
90.365075,23.820063,0
</coordinates></LineString>
</Placemark>
<Placemark>
<LineString><coordinates>
90.365075,23.820063,0
90.365139,23.819825,0
</coordinates></LineString>
</Placemark>
<Placemark>
<LineString><coordinates>
90.365139,23.819825,0
90.365202,23.819587,0
</coordinates></LineString>
</Placemark>
<Placemark>
<LineString><coordinates>
90.365202,23.819587,0
90.365339,23.819078,0
</coordinates></LineString>
</Placemark>
<Placemark>
<LineString><coordinates>
90.365339,23.819078,0
90.365345,23.819055,0
</coordinates></LineString>
</Placemark>
<Placemark>
<LineString><coordinates>
90.365345,23.819055,0
90.365374,23.818946,0
</coordinates></LineString>
</Placemark>
<Placemark>
<LineString><coordinates>
90.365374,23.818946,0
90.365488,23.818534,0
</coordinates></LineString>
</Placemark>
<Placemark>
<LineString><coordinates>
90.365488,23.818534,0
90.365634,23.818005,0
</coordinates></LineString>
</Placemark>
<Placemark>
<LineString><coordinates>
90.365634,23.818005,0
90.365781,23.817471,0
</coordinates></LineString>
</Placemark>
<Placemark>
<LineString><coordinates>
90.365781,23.817471,0
90.365877,23.817122,0
</coordinates></LineString>
</Placemark>
<Placemark>
<LineString><coordinates>
90.365877,23.817122,0
90.365921,23.816961,0
</coordinates></LineString>
</Placemark>
<Placemark>
<LineString><coordinates>
90.365921,23.816961,0
90.366058,23.816463,0
</coordinates></LineString>
</Placemark>
<Placemark>
<LineString><coordinates>
90.366058,23.816463,0
90.366170,23.816058,0
</coordinates></LineString>
</Placemark>
<Placemark>
<LineString><coordinates>
90.366170,23.816058,0
90.366200,23.815947,0
</coordinates></LineString>
</Placemark>
<Placemark>
<LineString><coordinates>
90.366200,23.815947,0
90.366249,23.815764,0
</coordinates></LineString>
</Placemark>
<Placemark>
<LineString><coordinates>
90.366249,23.815764,0
90.366345,23.815410,0
</coordinates></LineString>
</Placemark>
<Placemark>
<LineString><coordinates>
90.366345,23.815410,0
90.366421,23.815129,0
</coordinates></LineString>
</Placemark>
<Placemark>
<LineString><coordinates>
90.366421,23.815129,0
90.366474,23.814931,0
</coordinates></LineString>
</Placemark>
<Placemark>
<LineString><coordinates>
90.366474,23.814931,0
90.366576,23.814553,0
</coordinates></LineString>
</Placemark>
<Placemark>
<LineString><coordinates>
90.366576,23.814553,0
90.366615,23.814409,0
</coordinates></LineString>
</Placemark>
<Placemark>
<LineString><coordinates>
90.366615,23.814409,0
90.366742,23.813941,0
</coordinates></LineString>
</Placemark>
<Placemark>
<LineString><coordinates>
90.366742,23.813941,0
90.366890,23.813393,0
</coordinates></LineString>
</Placemark>
<Placemark>
<LineString><coordinates>
90.366890,23.813393,0
90.366904,23.813343,0
</coordinates></LineString>
</Placemark>
<Placemark>
<LineString><coordinates>
90.366904,23.813343,0
90.366978,23.813069,0
</coordinates></LineString>
</Placemark>
<Placemark>
<LineString><coordinates>
90.366978,23.813069,0
90.367005,23.812967,0
</coordinates></LineString>
</Placemark>
<Placemark>
<LineString><coordinates>
90.367005,23.812967,0
90.367041,23.812834,0
</coordinates></LineString>
</Placemark>
<Placemark>
<LineString><coordinates>
90.367041,23.812834,0
90.367136,23.812482,0
</coordinates></LineString>
</Placemark>
<Placemark>
<LineString><coordinates>
90.367136,23.812482,0
90.367263,23.812010,0
</coordinates></LineString>
</Placemark>
<Placemark>
<LineString><coordinates>
90.367263,23.812010,0
90.367406,23.811478,0
</coordinates></LineString>
</Placemark>
<Placemark>
<LineString><coordinates>
90.367406,23.811478,0
90.367482,23.811196,0
</coordinates></LineString>
</Placemark>
<Placemark>
<LineString><coordinates>
90.367482,23.811196,0
90.367541,23.810978,0
</coordinates></LineString>
</Placemark>
<Placemark>
<LineString><coordinates>
90.367541,23.810978,0
90.367669,23.810499,0
</coordinates></LineString>
</Placemark>
<Placemark>
<LineString><coordinates>
90.367669,23.810499,0
90.367680,23.810460,0
</coordinates></LineString>
</Placemark>
<Placemark>
<LineString><coordinates>
90.367680,23.810460,0
90.367821,23.809964,0
</coordinates></LineString>
</Placemark>
<Placemark>
<LineString><coordinates>
90.367821,23.809964,0
90.367855,23.809842,0
</coordinates></LineString>
</Placemark>
<Placemark>
<LineString><coordinates>
90.367855,23.809842,0
90.367976,23.809417,0
</coordinates></LineString>
</Placemark>
<Placemark>
<LineString><coordinates>
90.367976,23.809417,0
90.368009,23.809299,0
</coordinates></LineString>
</Placemark>
<Placemark>
<LineString><coordinates>
90.368009,23.809299,0
90.368123,23.808894,0
</coordinates></LineString>
</Placemark>
<Placemark>
<LineString><coordinates>
90.368123,23.808894,0
90.368180,23.808691,0
</coordinates></LineString>
</Placemark>
<Placemark>
<LineString><coordinates>
90.368180,23.808691,0
90.368237,23.808491,0
</coordinates></LineString>
</Placemark>
<Placemark>
<LineString><coordinates>
90.368237,23.808491,0
90.368265,23.808393,0
</coordinates></LineString>
</Placemark>
<Placemark>
<LineString><coordinates>
90.368265,23.808393,0
90.368481,23.807630,0
</coordinates></LineString>
</Placemark>
<Placemark>
<LineString><coordinates>
90.368481,23.807630,0
90.368626,23.807119,0
</coordinates></LineString>
</Placemark>
<Placemark>
<LineString><coordinates>
90.368626,23.807119,0
90.368654,23.807017,0
</coordinates></LineString>
</Placemark>
<Placemark>
<LineString><coordinates>
90.368654,23.807017,0
90.368726,23.806756,0
</coordinates></LineString>
</Placemark>
<Placemark>
<LineString><coordinates>
90.368726,23.806756,0
90.368754,23.806656,0
</coordinates></LineString>
</Placemark>
<Placemark>
<LineString><coordinates>
90.368754,23.806656,0
90.368835,23.806442,0
</coordinates></LineString>
</Placemark>
<Placemark>
<LineString><coordinates>
90.368835,23.806442,0
90.369050,23.805951,0
</coordinates></LineString>
</Placemark>
<Placemark>
<LineString><coordinates>
90.369050,23.805951,0
90.369084,23.805873,0
</coordinates></LineString>
</Placemark>
<Placemark>
<LineString><coordinates>
90.369084,23.805873,0
90.369223,23.805553,0
</coordinates></LineString>
</Placemark>
<Placemark>
<LineString><coordinates>
90.369223,23.805553,0
90.369288,23.805404,0
</coordinates></LineString>
</Placemark>
<Placemark>
<LineString><coordinates>
90.369288,23.805404,0
90.369492,23.804995,0
</coordinates></LineString>
</Placemark>
<Placemark>
<LineString><coordinates>
90.369492,23.804995,0
90.369672,23.804634,0
</coordinates></LineString>
</Placemark>
<Placemark>
<LineString><coordinates>
90.369672,23.804634,0
90.369741,23.804497,0
</coordinates></LineString>
</Placemark>
<Placemark>
<LineString><coordinates>
90.369741,23.804497,0
90.369836,23.804307,0
</coordinates></LineString>
</Placemark>
<Placemark>
<LineString><coordinates>
90.369836,23.804307,0
90.369938,23.804101,0
</coordinates></LineString>
</Placemark>
<Placemark>
<LineString><coordinates>
90.369938,23.804101,0
90.370117,23.803745,0
</coordinates></LineString>
</Placemark>
<Placemark>
<LineString><coordinates>
90.370117,23.803745,0
90.370159,23.803662,0
</coordinates></LineString>
</Placemark>
<Placemark>
<LineString><coordinates>
90.370159,23.803662,0
90.370208,23.803547,0
</coordinates></LineString>
</Placemark>
<Placemark>
<LineString><coordinates>
90.370208,23.803547,0
90.370297,23.803335,0
</coordinates></LineString>
</Placemark>
<Placemark>
<LineString><coordinates>
90.370297,23.803335,0
90.370338,23.803239,0
</coordinates></LineString>
</Placemark>
<Placemark>
<LineString><coordinates>
90.370338,23.803239,0
90.370483,23.802896,0
</coordinates></LineString>
</Placemark>
<Placemark>
<LineString><coordinates>
90.370483,23.802896,0
90.370564,23.802708,0
</coordinates></LineString>
</Placemark>
<Placemark>
<LineString><coordinates>
90.370564,23.802708,0
90.370600,23.802625,0
</coordinates></LineString>
</Placemark>
<Placemark>
<LineString><coordinates>
90.370600,23.802625,0
90.370836,23.802074,0
</coordinates></LineString>
</Placemark>
<Placemark>
<LineString><coordinates>
90.370836,23.802074,0
90.370895,23.801935,0
</coordinates></LineString>
</Placemark>
<Placemark>
<LineString><coordinates>
90.370895,23.801935,0
90.371067,23.801532,0
</coordinates></LineString>
</Placemark>
<Placemark>
<LineString><coordinates>
90.371067,23.801532,0
90.371197,23.801224,0
</coordinates></LineString>
</Placemark>
<Placemark>
<LineString><coordinates>
90.371197,23.801224,0
90.371336,23.800898,0
</coordinates></LineString>
</Placemark>
<Placemark>
<LineString><coordinates>
90.371336,23.800898,0
90.371414,23.800714,0
</coordinates></LineString>
</Placemark>
<Placemark>
<LineString><coordinates>
90.371414,23.800714,0
90.371483,23.800552,0
</coordinates></LineString>
</Placemark>
<Placemark>
<LineString><coordinates>
90.371483,23.800552,0
90.371500,23.800510,0
</coordinates></LineString>
</Placemark>
<Placemark>
<LineString><coordinates>
90.371500,23.800510,0
90.371536,23.800428,0
</coordinates></LineString>
</Placemark>
<Placemark>
<LineString><coordinates>
90.371536,23.800428,0
90.371735,23.799963,0
</coordinates></LineString>
</Placemark>
<Placemark>
<LineString><coordinates>
90.371735,23.799963,0
90.371966,23.799425,0
</coordinates></LineString>
</Placemark>
<Placemark>
<LineString><coordinates>
90.371966,23.799425,0
90.372061,23.799184,0
</coordinates></LineString>
</Placemark>
<Placemark>
<LineString><coordinates>
90.372061,23.799184,0
90.372187,23.798902,0
</coordinates></LineString>
</Placemark>
<Placemark>
<LineString><coordinates>
90.372187,23.798902,0
90.372416,23.798357,0
</coordinates></LineString>
</Placemark>
<Placemark>
<LineString><coordinates>
90.372416,23.798357,0
90.372793,23.797440,0
</coordinates></LineString>
</Placemark>
<Placemark>
<LineString><coordinates>
90.372793,23.797440,0
90.372853,23.797300,0
</coordinates></LineString>
</Placemark>
<Placemark>
<LineString><coordinates>
90.372853,23.797300,0
90.372943,23.797086,0
</coordinates></LineString>
</Placemark>
<Placemark>
<LineString><coordinates>
90.372943,23.797086,0
90.373183,23.796520,0
</coordinates></LineString>
</Placemark>
<Placemark>
<LineString><coordinates>
90.373183,23.796520,0
90.373208,23.796461,0
</coordinates></LineString>
</Placemark>
<Placemark>
<LineString><coordinates>
90.373208,23.796461,0
90.373298,23.796252,0
</coordinates></LineString>
</Placemark>
<Placemark>
<LineString><coordinates>
90.373298,23.796252,0
90.373544,23.795677,0
</coordinates></LineString>
</Placemark>
<Placemark>
<LineString><coordinates>
90.373544,23.795677,0
90.373647,23.795438,0
</coordinates></LineString>
</Placemark>
<Placemark>
<LineString><coordinates>
90.373647,23.795438,0
90.373751,23.795194,0
</coordinates></LineString>
</Placemark>
<Placemark>
<LineString><coordinates>
90.373751,23.795194,0
90.373825,23.795020,0
</coordinates></LineString>
</Placemark>
<Placemark>
<LineString><coordinates>
90.373825,23.795020,0
90.373856,23.794949,0
</coordinates></LineString>
</Placemark>
<Placemark>
<LineString><coordinates>
90.373856,23.794949,0
90.373997,23.794596,0
</coordinates></LineString>
</Placemark>
<Placemark>
<LineString><coordinates>
90.373997,23.794596,0
90.374188,23.794119,0
</coordinates></LineString>
</Placemark>
<Placemark>
<LineString><coordinates>
90.374188,23.794119,0
90.374272,23.793924,0
</coordinates></LineString>
</Placemark>
<Placemark>
<LineString><coordinates>
90.374272,23.793924,0
90.374437,23.793544,0
</coordinates></LineString>
</Placemark>
<Placemark>
<LineString><coordinates>
90.374437,23.793544,0
90.374477,23.793453,0
</coordinates></LineString>
</Placemark>
<Placemark>
<LineString><coordinates>
90.374477,23.793453,0
90.374575,23.793232,0
</coordinates></LineString>
</Placemark>
<Placemark>
<LineString><coordinates>
90.374575,23.793232,0
90.374785,23.792706,0
</coordinates></LineString>
</Placemark>
<Placemark>
<LineString><coordinates>
90.374785,23.792706,0
90.374821,23.792615,0
</coordinates></LineString>
</Placemark>
<Placemark>
<LineString><coordinates>
90.374821,23.792615,0
90.374845,23.792558,0
</coordinates></LineString>
</Placemark>
<Placemark>
<LineString><coordinates>
90.374845,23.792558,0
90.374966,23.792273,0
</coordinates></LineString>
</Placemark>
<Placemark>
<LineString><coordinates>
90.374966,23.792273,0
90.375033,23.792114,0
</coordinates></LineString>
</Placemark>
<Placemark>
<LineString><coordinates>
90.375033,23.792114,0
90.375250,23.791618,0
</coordinates></LineString>
</Placemark>
<Placemark>
<LineString><coordinates>
90.375250,23.791618,0
90.375263,23.791588,0
</coordinates></LineString>
</Placemark>
<Placemark>
<LineString><coordinates>
90.375263,23.791588,0
90.375354,23.791380,0
</coordinates></LineString>
</Placemark>
<Placemark>
<LineString><coordinates>
90.375354,23.791380,0
90.375552,23.790927,0
</coordinates></LineString>
</Placemark>
<Placemark>
<LineString><coordinates>
90.375552,23.790927,0
90.375743,23.790491,0
</coordinates></LineString>
</Placemark>
<Placemark>
<LineString><coordinates>
90.375743,23.790491,0
90.375786,23.790389,0
</coordinates></LineString>
</Placemark>
<Placemark>
<LineString><coordinates>
90.375786,23.790389,0
90.375948,23.790021,0
</coordinates></LineString>
</Placemark>
<Placemark>
<LineString><coordinates>
90.375948,23.790021,0
90.376115,23.789647,0
</coordinates></LineString>
</Placemark>
<Placemark>
<LineString><coordinates>
90.376115,23.789647,0
90.376133,23.789607,0
</coordinates></LineString>
</Placemark>
<Placemark>
<LineString><coordinates>
90.376133,23.789607,0
90.376294,23.789247,0
</coordinates></LineString>
</Placemark>
<Placemark>
<LineString><coordinates>
90.376294,23.789247,0
90.376443,23.788885,0
</coordinates></LineString>
</Placemark>
<Placemark>
<LineString><coordinates>
90.376443,23.788885,0
90.376537,23.788676,0
</coordinates></LineString>
</Placemark>
<Placemark>
<LineString><coordinates>
90.376537,23.788676,0
90.376590,23.788557,0
</coordinates></LineString>
</Placemark>
<Placemark>
<LineString><coordinates>
90.376590,23.788557,0
90.376772,23.788145,0
</coordinates></LineString>
</Placemark>
<Placemark>
<LineString><coordinates>
90.376772,23.788145,0
90.376798,23.788087,0
</coordinates></LineString>
</Placemark>
<Placemark>
<LineString><coordinates>
90.376798,23.788087,0
90.377143,23.787293,0
</coordinates></LineString>
</Placemark>
<Placemark>
<LineString><coordinates>
90.377143,23.787293,0
90.377166,23.787237,0
</coordinates></LineString>
</Placemark>
<Placemark>
<LineString><coordinates>
90.377166,23.787237,0
90.377392,23.786714,0
</coordinates></LineString>
</Placemark>
<Placemark>
<LineString><coordinates>
90.377392,23.786714,0
90.377471,23.786526,0
</coordinates></LineString>
</Placemark>
<Placemark>
<LineString><coordinates>
90.377471,23.786526,0
90.377568,23.786294,0
</coordinates></LineString>
</Placemark>
<Placemark>
<LineString><coordinates>
90.377568,23.786294,0
90.377790,23.785763,0
</coordinates></LineString>
</Placemark>
<Placemark>
<LineString><coordinates>
90.377790,23.785763,0
90.377973,23.785327,0
</coordinates></LineString>
</Placemark>
<Placemark>
<LineString><coordinates>
90.377973,23.785327,0
90.378069,23.785113,0
</coordinates></LineString>
</Placemark>
<Placemark>
<LineString><coordinates>
90.378069,23.785113,0
90.378136,23.784941,0
</coordinates></LineString>
</Placemark>
<Placemark>
<LineString><coordinates>
90.378136,23.784941,0
90.378203,23.784771,0
</coordinates></LineString>
</Placemark>
<Placemark>
<LineString><coordinates>
90.378203,23.784771,0
90.378302,23.784459,0
</coordinates></LineString>
</Placemark>
<Placemark>
<LineString><coordinates>
90.378302,23.784459,0
90.378502,23.783828,0
</coordinates></LineString>
</Placemark>
<Placemark>
<LineString><coordinates>
90.378502,23.783828,0
90.378656,23.783412,0
</coordinates></LineString>
</Placemark>
<Placemark>
<LineString><coordinates>
90.378656,23.783412,0
90.378692,23.783315,0
</coordinates></LineString>
</Placemark>
<Placemark>
<LineString><coordinates>
90.378692,23.783315,0
90.378826,23.782925,0
</coordinates></LineString>
</Placemark>
<Placemark>
<LineString><coordinates>
90.378826,23.782925,0
90.378877,23.782777,0
</coordinates></LineString>
</Placemark>
<Placemark>
<LineString><coordinates>
90.378877,23.782777,0
90.379181,23.781792,0
</coordinates></LineString>
</Placemark>
<Placemark>
<LineString><coordinates>
90.379181,23.781792,0
90.379228,23.781637,0
</coordinates></LineString>
</Placemark>
<Placemark>
<LineString><coordinates>
90.379228,23.781637,0
90.379583,23.780457,0
</coordinates></LineString>
</Placemark>
<Placemark>
<LineString><coordinates>
90.379583,23.780457,0
90.379592,23.780428,0
</coordinates></LineString>
</Placemark>
<Placemark>
<LineString><coordinates>
90.379592,23.780428,0
90.379894,23.779366,0
</coordinates></LineString>
</Placemark>
<Placemark>
<LineString><coordinates>
90.379894,23.779366,0
90.380077,23.778723,0
</coordinates></LineString>
</Placemark>
<Placemark>
<LineString><coordinates>
90.380077,23.778723,0
90.380444,23.777563,0
</coordinates></LineString>
</Placemark>
<Placemark>
<LineString><coordinates>
90.380444,23.777563,0
90.380682,23.776812,0
</coordinates></LineString>
</Placemark>
<Placemark>
<LineString><coordinates>
90.380682,23.776812,0
90.380805,23.776426,0
</coordinates></LineString>
</Placemark>
<Placemark>
<LineString><coordinates>
90.380805,23.776426,0
90.381452,23.774201,0
</coordinates></LineString>
</Placemark>
<Placemark>
<LineString><coordinates>
90.381452,23.774201,0
90.381673,23.773442,0
</coordinates></LineString>
</Placemark>
<Placemark>
<LineString><coordinates>
90.381673,23.773442,0
90.381704,23.773340,0
</coordinates></LineString>
</Placemark>
<Placemark>
<LineString><coordinates>
90.381704,23.773340,0
90.381892,23.772725,0
</coordinates></LineString>
</Placemark>
<Placemark>
<LineString><coordinates>
90.381892,23.772725,0
90.382157,23.771912,0
</coordinates></LineString>
</Placemark>
<Placemark>
<LineString><coordinates>
90.382157,23.771912,0
90.382191,23.771810,0
</coordinates></LineString>
</Placemark>
<Placemark>
<LineString><coordinates>
90.382191,23.771810,0
90.382466,23.770983,0
</coordinates></LineString>
</Placemark>
<Placemark>
<LineString><coordinates>
90.382466,23.770983,0
90.382499,23.770808,0
</coordinates></LineString>
</Placemark>
<Placemark>
<LineString><coordinates>
90.382499,23.770808,0
90.382573,23.770330,0
</coordinates></LineString>
</Placemark>
<Placemark>
<LineString><coordinates>
90.382573,23.770330,0
90.382659,23.769811,0
</coordinates></LineString>
</Placemark>
<Placemark>
<LineString><coordinates>
90.382659,23.769811,0
90.382862,23.769096,0
</coordinates></LineString>
</Placemark>
<Placemark>
<LineString><coordinates>
90.382862,23.769096,0
90.383073,23.768440,0
</coordinates></LineString>
</Placemark>
<Placemark>
<LineString><coordinates>
90.383073,23.768440,0
90.383185,23.766716,0
</coordinates></LineString>
</Placemark>
<Placemark>
<LineString><coordinates>
90.383185,23.766716,0
90.383248,23.766135,0
</coordinates></LineString>
</Placemark>
<Placemark>
<LineString><coordinates>
90.383248,23.766135,0
90.383391,23.765135,0
</coordinates></LineString>
</Placemark>
<Placemark>
<LineString><coordinates>
90.383391,23.765135,0
90.383479,23.763623,0
</coordinates></LineString>
</Placemark>
<Placemark>
<LineString><coordinates>
90.383479,23.763623,0
90.383540,23.762505,0
</coordinates></LineString>
</Placemark>
<Placemark>
<LineString><coordinates>
90.383540,23.762505,0
90.383556,23.762201,0
</coordinates></LineString>
</Placemark>
<Placemark>
<LineString><coordinates>
90.383556,23.762201,0
90.383590,23.761567,0
</coordinates></LineString>
</Placemark>
<Placemark>
<LineString><coordinates>
90.383590,23.761567,0
90.383610,23.761283,0
</coordinates></LineString>
</Placemark>
<Placemark>
<LineString><coordinates>
90.383610,23.761283,0
90.383698,23.759989,0
</coordinates></LineString>
</Placemark>
<Placemark>
<LineString><coordinates>
90.383698,23.759989,0
90.383775,23.758856,0
</coordinates></LineString>
</Placemark>
<Placemark>
<LineString><coordinates>
90.383775,23.758856,0
90.382585,23.758774,0
</coordinates></LineString>
</Placemark>
<Placemark>
<LineString><coordinates>
90.382585,23.758774,0
90.381874,23.758724,0
</coordinates></LineString>
</Placemark>
<Placemark>
<LineString><coordinates>
90.381874,23.758724,0
90.381192,23.758677,0
</coordinates></LineString>
</Placemark>
<Placemark>
<LineString><coordinates>
90.381192,23.758677,0
90.380886,23.758655,0
</coordinates></LineString>
</Placemark>
<Placemark>
<LineString><coordinates>
90.380886,23.758655,0
90.380049,23.758598,0
</coordinates></LineString>
</Placemark>
<Placemark>
<LineString><coordinates>
90.380049,23.758598,0
90.379420,23.758554,0
</coordinates></LineString>
</Placemark>
<Placemark>
<LineString><coordinates>
90.379420,23.758554,0
90.379492,23.758122,0
</coordinates></LineString>
</Placemark>
<Placemark>
<LineString><coordinates>
90.379492,23.758122,0
90.379537,23.757850,0
</coordinates></LineString>
</Placemark>
<Placemark>
<LineString><coordinates>
90.379537,23.757850,0
90.379561,23.757704,0
</coordinates></LineString>
</Placemark>
<Placemark>
<LineString><coordinates>
90.379561,23.757704,0
90.379683,23.756975,0
</coordinates></LineString>
</Placemark>
<Placemark>
<LineString><coordinates>
90.379683,23.756975,0
90.378751,23.756943,0
</coordinates></LineString>
</Placemark>
<Placemark>
<LineString><coordinates>
90.378751,23.756943,0
90.378356,23.756928,0
</coordinates></LineString>
</Placemark>
</Document>
</kml>