<?xml version="1.0" encoding="UTF-8"?>
<kml xmlns="http://earth.google.com/kml/2.1">
<Document>
<Placemark>
<name>Route</name>
<LineString>
<coordinates>
90.3638,23.8341,0
90.3638,23.8341,0
90.3638,23.8339,0
90.3639,23.8335,0
90.3639,23.8322,0
90.3639,23.8321,0
90.3639,23.8321,0
90.3638,23.8318,0
90.3638,23.8316,0
90.3638,23.8315,0
90.3638,23.8312,0
90.3638,23.8305,0
90.3639,23.8295,0
90.3642,23.8279,0
90.3642,23.8279,0
90.3642,23.8278,0
90.3643,23.8273,0
90.3643,23.8267,0
90.3643,23.8264,0
90.3643,23.8264,0
90.3643,23.8262,0
90.3643,23.8257,0
90.3643,23.8252,0
90.3643,23.8251,0
90.3643,23.825,0
90.3643,23.8247,0
90.3643,23.8245,0
90.3644,23.8239,0
90.3644,23.8237,0
90.3644,23.8227,0
90.3644,23.8227,0
90.3644,23.8226,0
90.3645,23.8222,0
90.3645,23.8222,0
90.3647,23.8216,0
90.3648,23.8211,0
90.3649,23.8209,0
90.3649,23.8206,0
90.3649,23.8206,0
90.365,23.8203,0
90.3651,23.8201,0
90.3651,23.8198,0
90.3652,23.8196,0
90.3653,23.8191,0
90.3653,23.8191,0
90.3654,23.8189,0
90.3655,23.8185,0
90.3656,23.818,0
90.3658,23.8175,0
90.3659,23.8171,0
90.3659,23.817,0
90.3661,23.8165,0
90.3662,23.8161,0
90.3662,23.8159,0
90.3662,23.8158,0
90.3663,23.8154,0
90.3664,23.8151,0
90.3665,23.8149,0
90.3666,23.8146,0
90.3666,23.8144,0
90.3667,23.8139,0
90.3669,23.8134,0
90.3669,23.8133,0
90.367,23.8131,0
90.367,23.813,0
90.367,23.8128,0
90.3671,23.8125,0
90.3673,23.812,0
90.3674,23.8115,0
90.3675,23.8112,0
90.3675,23.811,0
90.3677,23.8105,0
90.3677,23.8105,0
90.3678,23.81,0
90.3679,23.8098,0
90.368,23.8094,0
90.368,23.8093,0
90.3681,23.8089,0
90.3682,23.8087,0
90.3682,23.8085,0
90.3683,23.8084,0
90.3685,23.8076,0
90.3686,23.8071,0
90.3687,23.807,0
90.3687,23.8068,0
90.3688,23.8067,0
90.3688,23.8064,0
90.3691,23.806,0
90.3691,23.8059,0
90.3692,23.8056,0
90.3693,23.8054,0
90.3695,23.805,0
90.3697,23.8046,0
90.3697,23.8045,0
90.3698,23.8043,0
90.3699,23.8041,0
90.3701,23.8037,0
90.3702,23.8037,0
90.3702,23.8035,0
90.3703,23.8033,0
90.3703,23.8032,0
90.3705,23.8029,0
90.3706,23.8027,0
90.3706,23.8026,0
90.3708,23.8021,0
90.3709,23.8019,0
90.3711,23.8015,0
90.3712,23.8012,0
90.3713,23.8009,0
90.3714,23.8007,0
90.3715,23.8006,0
90.3715,23.8005,0
90.3715,23.8004,0
90.3717,23.8,0
90.372,23.7994,0
90.3721,23.7992,0
90.3722,23.7989,0
90.3724,23.7984,0
90.3728,23.7974,0
90.3729,23.7973,0
90.3729,23.7971,0
90.3732,23.7965,0
90.3732,23.7965,0
90.3733,23.7963,0
90.3735,23.7957,0
90.3736,23.7954,0
90.3738,23.7952,0
90.3738,23.795,0
90.3739,23.7949,0
90.374,23.7946,0
90.3742,23.7941,0
90.3743,23.7939,0
90.3744,23.7935,0
90.3745,23.7935,0
90.3746,23.7932,0
90.3748,23.7927,0
90.3748,23.7926,0
90.3748,23.7926,0
90.375,23.7923,0
90.375,23.7921,0
90.3752,23.7916,0
90.3753,23.7916,0
90.3754,23.7914,0
90.3756,23.7909,0
90.3757,23.7905,0
90.3758,23.7904,0
90.3759,23.79,0
90.3761,23.7896,0
90.3761,23.7896,0
90.3763,23.7892,0
90.3764,23.7889,0
90.3765,23.7887,0
90.3766,23.7886,0
90.3768,23.7881,0
90.3768,23.7881,0
90.3771,23.7873,0
90.3772,23.7872,0
90.3774,23.7867,0
90.3775,23.7865,0
90.3776,23.7863,0
90.3778,23.7858,0
90.378,23.7853,0
90.3781,23.7851,0
90.3781,23.7849,0
90.3782,23.7848,0
90.3783,23.7845,0
90.3785,23.7838,0
90.3787,23.7834,0
90.3787,23.7833,0
90.3788,23.7829,0
90.3789,23.7828,0
90.3792,23.7818,0
90.3792,23.7816,0
90.3796,23.7805,0
90.3796,23.7804,0
90.3799,23.7794,0
90.3801,23.7787,0
90.3804,23.7776,0
90.3807,23.7768,0
90.3808,23.7764,0
90.3815,23.7742,0
90.3817,23.7734,0
90.3817,23.7733,0
90.3819,23.7727,0
90.3822,23.7719,0
90.3822,23.7718,0
90.3825,23.771,0
90.3825,23.7708,0
90.3826,23.7703,0
90.3827,23.7698,0
90.3829,23.7691,0
90.3831,23.7684,0
90.3832,23.7667,0
90.3832,23.7661,0
90.3834,23.7651,0
90.3835,23.7636,0
90.3835,23.7625,0
90.3836,23.7622,0
90.3836,23.7616,0
90.3836,23.7613,0
90.3837,23.76,0
90.3838,23.7589,0
90.3826,23.7588,0
90.3819,23.7587,0
90.3812,23.7587,0
90.3809,23.7587,0
90.38,23.7586,0
90.3794,23.7586,0
90.3795,23.7581,0
90.3795,23.7579,0
90.3796,23.7577,0
90.3797,23.757,0
90.3788,23.7569,0
90.3784,23.7569,0
90.3784,23.7569,0
</coordinates>
</LineString>
</Placemark>
</Document>
</kml>